{
  "type": "FeatureCollection",
  "features": [
    {
      "type": "Feature",
      "properties": {
        "norad_id": 43260,
        "name": "GAOFEN-1 03",
        "group": "resource",
        "lat": 74.92018999953206,
        "lon": -108.0610357910639,
        "alt_km": 634.3667091472589,
        "timestamp": "2025-12-08T10:52:02.607014+00:00",
        "meta_object_name": "GAOFEN-1 03",
        "meta_object_id": "2018-031B",
        "meta_epoch": "2025-12-07T23:01:04.920672",
        "meta_mean_motion": 14.76420894,
        "meta_eccentricity": 0.00023159,
        "meta_inclination": 98.0805,
        "meta_ra_of_asc_node": 39.6239,
        "meta_arg_of_pericenter": 342.3536,
        "meta_mean_anomaly": 17.7593,
        "meta_ephemeris_type": 0,
        "meta_classification_type": "U",
        "meta_norad_cat_id": 43260,
        "meta_element_set_no": 999,
        "meta_rev_at_epoch": 41447,
        "meta_bstar": 0.00023471499,
        "meta_mean_motion_dot": 1.58e-05,
        "meta_mean_motion_ddot": 0,
        "tle_line1": "1 43260U 18031B   25341.95908473  .00001580  00000+0  23471-3 0  9991",
        "tle_line2": "2 43260  98.0805  39.6239 0002315 342.3536  17.7593 14.76420894414473"
      },
      "geometry": {
        "type": "Point",
        "coordinates": [
          -108.0610357910639,
          74.92018999953206
        ]
      }
    },
    {
      "type": "Feature",
      "properties": {
        "norad_id": 43262,
        "name": "GAOFEN-1 04",
        "group": "resource",
        "lat": -51.25931836160214,
        "lon": -149.9140838616495,
        "alt_km": 648.3610365979293,
        "timestamp": "2025-12-08T10:52:02.607024+00:00",
        "meta_object_name": "GAOFEN-1 04",
        "meta_object_id": "2018-031D",
        "meta_epoch": "2025-12-07T22:26:04.555680",
        "meta_mean_motion": 14.76433906,
        "meta_eccentricity": 0.00011751,
        "meta_inclination": 98.0815,
        "meta_ra_of_asc_node": 39.7683,
        "meta_arg_of_pericenter": 59.8977,
        "meta_mean_anomaly": 300.2349,
        "meta_ephemeris_type": 0,
        "meta_classification_type": "U",
        "meta_norad_cat_id": 43262,
        "meta_element_set_no": 999,
        "meta_rev_at_epoch": 41446,
        "meta_bstar": 0.00023107096,
        "meta_mean_motion_dot": 1.555e-05,
        "meta_mean_motion_ddot": 0,
        "tle_line1": "1 43262U 18031D   25341.93477495  .00001555  00000+0  23107-3 0  9994",
        "tle_line2": "2 43262  98.0815  39.7683 0001175  59.8977 300.2349 14.76433906414468"
      },
      "geometry": {
        "type": "Point",
        "coordinates": [
          -149.9140838616495,
          -51.25931836160214
        ]
      }
    },
    {
      "type": "Feature",
      "properties": {
        "norad_id": 43437,
        "name": "SENTINEL-3B",
        "group": "resource",
        "lat": 79.69479937403892,
        "lon": -8.912836606351147,
        "alt_km": 794.2329931298045,
        "timestamp": "2025-12-08T10:52:02.607035+00:00",
        "meta_object_name": "SENTINEL-3B",
        "meta_object_id": "2018-039A",
        "meta_epoch": "2025-12-07T22:41:30.426720",
        "meta_mean_motion": 14.26739936,
        "meta_eccentricity": 0.00015247,
        "meta_inclination": 98.6271,
        "meta_ra_of_asc_node": 47.1992,
        "meta_arg_of_pericenter": 107.6411,
        "meta_mean_anomaly": 252.4936,
        "meta_ephemeris_type": 0,
        "meta_classification_type": "U",
        "meta_norad_cat_id": 43437,
        "meta_element_set_no": 999,
        "meta_rev_at_epoch": 39685,
        "meta_bstar": 0.00012455305,
        "meta_mean_motion_dot": 2.58e-06,
        "meta_mean_motion_ddot": 0,
        "tle_line1": "1 43437U 18039A   25341.94549105  .00000258  00000+0  12455-3 0  9998",
        "tle_line2": "2 43437  98.6271  47.1992 0001524 107.6411 252.4936 14.26739936396852"
      },
      "geometry": {
        "type": "Point",
        "coordinates": [
          -8.912836606351147,
          79.69479937403892
        ]
      }
    },
    {
      "type": "Feature",
      "properties": {
        "norad_id": 43461,
        "name": "GAOFEN-5 01",
        "group": "resource",
        "lat": -80.38943931992257,
        "lon": 6.510151635666892,
        "alt_km": 699.0715981026005,
        "timestamp": "2025-12-08T10:52:02.607046+00:00",
        "meta_object_name": "GAOFEN-5 01",
        "meta_object_id": "2018-043A",
        "meta_epoch": "2025-12-07T22:06:10.768608",
        "meta_mean_motion": 14.60401449,
        "meta_eccentricity": 0.00012884,
        "meta_inclination": 98.4318,
        "meta_ra_of_asc_node": 304.8042,
        "meta_arg_of_pericenter": 357.5447,
        "meta_mean_anomaly": 2.5746,
        "meta_ephemeris_type": 0,
        "meta_classification_type": "U",
        "meta_norad_cat_id": 43461,
        "meta_element_set_no": 999,
        "meta_rev_at_epoch": 40377,
        "meta_bstar": 0.00018980945,
        "meta_mean_motion_dot": 8.7e-06,
        "meta_mean_motion_ddot": 0,
        "tle_line1": "1 43461U 18043A   25341.92095797  .00000870  00000+0  18981-3 0  9991",
        "tle_line2": "2 43461  98.4318 304.8042 0001288 357.5447   2.5746 14.60401449403776"
      },
      "geometry": {
        "type": "Point",
        "coordinates": [
          6.510151635666892,
          -80.38943931992257
        ]
      }
    },
    {
      "type": "Feature",
      "properties": {
        "norad_id": 43484,
        "name": "GAOFEN-6",
        "group": "resource",
        "lat": 20.93856829031617,
        "lon": 43.85558332969643,
        "alt_km": 634.8188195407902,
        "timestamp": "2025-12-08T10:52:02.607056+00:00",
        "meta_object_name": "GAOFEN-6",
        "meta_object_id": "2018-048A",
        "meta_epoch": "2025-12-07T23:23:14.111232",
        "meta_mean_motion": 14.76552433,
        "meta_eccentricity": 0.00132885,
        "meta_inclination": 97.8038,
        "meta_ra_of_asc_node": 46.4013,
        "meta_arg_of_pericenter": 77.8595,
        "meta_mean_anomaly": 282.4103,
        "meta_ephemeris_type": 0,
        "meta_classification_type": "U",
        "meta_norad_cat_id": 43484,
        "meta_element_set_no": 999,
        "meta_rev_at_epoch": 40517,
        "meta_bstar": 0.00020659615,
        "meta_mean_motion_dot": 1.393e-05,
        "meta_mean_motion_ddot": 0,
        "tle_line1": "1 43484U 18048A   25341.97446888  .00001393  00000+0  20660-3 0  9995",
        "tle_line2": "2 43484  97.8038  46.4013 0013288  77.8595 282.4103 14.76552433405178"
      },
      "geometry": {
        "type": "Point",
        "coordinates": [
          43.85558332969643,
          20.93856829031617
        ]
      }
    },
    {
      "type": "Feature",
      "properties": {
        "norad_id": 43585,
        "name": "GAOFEN-11 01",
        "group": "resource",
        "lat": 29.684502641775506,
        "lon": -130.46939760584513,
        "alt_km": 421.32114724654366,
        "timestamp": "2025-12-08T10:52:02.607066+00:00",
        "meta_object_name": "GAOFEN-11 01",
        "meta_object_id": "2018-063A",
        "meta_epoch": "2025-12-07T23:22:09.808896",
        "meta_mean_motion": 15.49020478,
        "meta_eccentricity": 0.0004629,
        "meta_inclination": 97.1563,
        "meta_ra_of_asc_node": 44.9485,
        "meta_arg_of_pericenter": 334.9855,
        "meta_mean_anomaly": 25.1172,
        "meta_ephemeris_type": 0,
        "meta_classification_type": "U",
        "meta_norad_cat_id": 43585,
        "meta_element_set_no": 999,
        "meta_rev_at_epoch": 41068,
        "meta_bstar": 0.00034823976,
        "meta_mean_motion_dot": 0.00018792,
        "meta_mean_motion_ddot": 0,
        "tle_line1": "1 43585U 18063A   25341.97372464  .00018792  00000+0  34824-3 0  9990",
        "tle_line2": "2 43585  97.1563  44.9485 0004629 334.9855  25.1172 15.49020478410687"
      },
      "geometry": {
        "type": "Point",
        "coordinates": [
          -130.46939760584513,
          29.684502641775506
        ]
      }
    },
    {
      "type": "Feature",
      "properties": {
        "norad_id": 43613,
        "name": "ICESAT-2",
        "group": "resource",
        "lat": -28.35520144244493,
        "lon": 58.49688378711615,
        "alt_km": 486.23569545227565,
        "timestamp": "2025-12-08T10:52:02.607076+00:00",
        "meta_object_name": "ICESAT-2",
        "meta_object_id": "2018-070A",
        "meta_epoch": "2025-12-07T21:23:11.541984",
        "meta_mean_motion": 15.28215161,
        "meta_eccentricity": 0.00019774,
        "meta_inclination": 92.0046,
        "meta_ra_of_asc_node": 239.4285,
        "meta_arg_of_pericenter": 161.2885,
        "meta_mean_anomaly": 198.8438,
        "meta_ephemeris_type": 0,
        "meta_classification_type": "U",
        "meta_norad_cat_id": 43613,
        "meta_element_set_no": 999,
        "meta_rev_at_epoch": 40324,
        "meta_bstar": 0.00057423926,
        "meta_mean_motion_dot": 0.00015794,
        "meta_mean_motion_ddot": 0,
        "tle_line1": "1 43613U 18070A   25341.89110581  .00015794  00000+0  57424-3 0  9991",
        "tle_line2": "2 43613  92.0046 239.4285 0001977 161.2885 198.8438 15.28215161403244"
      },
      "geometry": {
        "type": "Point",
        "coordinates": [
          58.49688378711615,
          -28.35520144244493
        ]
      }
    }
  ]
}